{"fetched_at":"2026-07-21T07:06:53.417Z","source":"https://celestrak.org/NORAD/elements/gp.php?NAME=HAWK&FORMAT=JSON","constellation":"hawkeye-360","records":[{"OBJECT_NAME":"HAWK-A","OBJECT_ID":"2018-099H","EPOCH":"2026-07-20T02:15:27.972000","CLASSIFICATION_TYPE":"U","MEAN_MOTION":15.25001549,"ECCENTRICITY":0.00352734,"INCLINATION":97.3891,"RA_OF_ASC_NODE":252.9053,"ARG_OF_PERICENTER":166.8572,"MEAN_ANOMALY":193.3593,"EPHEMERIS_TYPE":0,"NORAD_CAT_ID":43765,"ELEMENT_SET_NO":999,"REV_AT_EPOCH":41811,"BSTAR":0.00015705264,"MEAN_MOTION_DOT":0.00003914,"MEAN_MOTION_DDOT":0},{"OBJECT_NAME":"HAWK-B","OBJECT_ID":"2018-099AN","EPOCH":"2026-07-20T02:08:52.334304","CLASSIFICATION_TYPE":"U","MEAN_MOTION":15.23147151,"ECCENTRICITY":0.00318699,"INCLINATION":97.3942,"RA_OF_ASC_NODE":252.2461,"ARG_OF_PERICENTER":184.7615,"MEAN_ANOMALY":175.3324,"EPHEMERIS_TYPE":0,"NORAD_CAT_ID":43794,"ELEMENT_SET_NO":999,"REV_AT_EPOCH":41804,"BSTAR":0.00014076644,"MEAN_MOTION_DOT":0.00003298,"MEAN_MOTION_DDOT":0},{"OBJECT_NAME":"HAWK-C","OBJECT_ID":"2018-099AT","EPOCH":"2026-07-20T09:18:58.197312","CLASSIFICATION_TYPE":"U","MEAN_MOTION":15.28539634,"ECCENTRICITY":0.00408265,"INCLINATION":97.3868,"RA_OF_ASC_NODE":254.2731,"ARG_OF_PERICENTER":165.5943,"MEAN_ANOMALY":194.6471,"EPHEMERIS_TYPE":0,"NORAD_CAT_ID":43799,"ELEMENT_SET_NO":999,"REV_AT_EPOCH":41898,"BSTAR":0.00017352094,"MEAN_MOTION_DOT":0.0000486,"MEAN_MOTION_DDOT":0},{"OBJECT_NAME":"HAWK-2C","OBJECT_ID":"2021-006CT","EPOCH":"2026-07-20T01:49:05.646720","CLASSIFICATION_TYPE":"U","MEAN_MOTION":15.35024151,"ECCENTRICITY":0.00086607,"INCLINATION":97.226,"RA_OF_ASC_NODE":244.7343,"ARG_OF_PERICENTER":87.1093,"MEAN_ANOMALY":273.1142,"EPHEMERIS_TYPE":0,"NORAD_CAT_ID":47502,"ELEMENT_SET_NO":999,"REV_AT_EPOCH":30454,"BSTAR":0.00010645849,"MEAN_MOTION_DOT":0.00003542,"MEAN_MOTION_DDOT":0},{"OBJECT_NAME":"HAWK-2A","OBJECT_ID":"2021-006CW","EPOCH":"2026-07-20T14:23:09.220128","CLASSIFICATION_TYPE":"U","MEAN_MOTION":15.35049179,"ECCENTRICITY":0.0008214,"INCLINATION":97.2303,"RA_OF_ASC_NODE":245.9448,"ARG_OF_PERICENTER":89.0815,"MEAN_ANOMALY":271.1369,"EPHEMERIS_TYPE":0,"NORAD_CAT_ID":47505,"ELEMENT_SET_NO":999,"REV_AT_EPOCH":30462,"BSTAR":0.00011278,"MEAN_MOTION_DOT":0.0000376,"MEAN_MOTION_DDOT":0},{"OBJECT_NAME":"HAWK-2B","OBJECT_ID":"2021-006CZ","EPOCH":"2026-07-20T20:28:37.117632","CLASSIFICATION_TYPE":"U","MEAN_MOTION":15.35185099,"ECCENTRICITY":0.00087447,"INCLINATION":97.2174,"RA_OF_ASC_NODE":244.4728,"ARG_OF_PERICENTER":86.7227,"MEAN_ANOMALY":273.5018,"EPHEMERIS_TYPE":0,"NORAD_CAT_ID":47508,"ELEMENT_SET_NO":999,"REV_AT_EPOCH":30466,"BSTAR":0.00015186784,"MEAN_MOTION_DOT":0.00005114,"MEAN_MOTION_DDOT":0},{"OBJECT_NAME":"HAWK-3B","OBJECT_ID":"2021-059BE","EPOCH":"2026-07-20T03:05:42.618336","CLASSIFICATION_TYPE":"U","MEAN_MOTION":15.72164957,"ECCENTRICITY":0.00048552,"INCLINATION":97.6637,"RA_OF_ASC_NODE":41.0194,"ARG_OF_PERICENTER":181.2561,"MEAN_ANOMALY":178.869,"EPHEMERIS_TYPE":0,"NORAD_CAT_ID":48931,"ELEMENT_SET_NO":999,"REV_AT_EPOCH":28302,"BSTAR":0.00021491603,"MEAN_MOTION_DOT":0.00028153,"MEAN_MOTION_DDOT":0},{"OBJECT_NAME":"HAWK-3C","OBJECT_ID":"2021-059BX","EPOCH":"2026-07-20T19:53:26.168640","CLASSIFICATION_TYPE":"U","MEAN_MOTION":15.72210741,"ECCENTRICITY":0.00052658,"INCLINATION":97.6749,"RA_OF_ASC_NODE":47.5312,"ARG_OF_PERICENTER":178.9244,"MEAN_ANOMALY":181.2031,"EPHEMERIS_TYPE":0,"NORAD_CAT_ID":48948,"ELEMENT_SET_NO":999,"REV_AT_EPOCH":28313,"BSTAR":0.00023340613,"MEAN_MOTION_DOT":0.00030658,"MEAN_MOTION_DDOT":0},{"OBJECT_NAME":"HAWK-3A","OBJECT_ID":"2021-059CG","EPOCH":"2026-07-20T03:05:05.583840","CLASSIFICATION_TYPE":"U","MEAN_MOTION":15.72164641,"ECCENTRICITY":0.00050492,"INCLINATION":97.6701,"RA_OF_ASC_NODE":43.9389,"ARG_OF_PERICENTER":183.4307,"MEAN_ANOMALY":176.6922,"EPHEMERIS_TYPE":0,"NORAD_CAT_ID":48957,"ELEMENT_SET_NO":999,"REV_AT_EPOCH":28302,"BSTAR":0.00021024664,"MEAN_MOTION_DOT":0.00027537,"MEAN_MOTION_DDOT":0},{"OBJECT_NAME":"HAWK-5C","OBJECT_ID":"2022-057Y","EPOCH":"2026-07-20T21:27:50.723712","CLASSIFICATION_TYPE":"U","MEAN_MOTION":15.5245465,"ECCENTRICITY":0.00023887,"INCLINATION":97.6629,"RA_OF_ASC_NODE":3.7701,"ARG_OF_PERICENTER":318.0528,"MEAN_ANOMALY":42.0541,"EPHEMERIS_TYPE":0,"NORAD_CAT_ID":52754,"ELEMENT_SET_NO":999,"REV_AT_EPOCH":23157,"BSTAR":0.00022058054,"MEAN_MOTION_DOT":0.00013388,"MEAN_MOTION_DDOT":0},{"OBJECT_NAME":"HAWK-5B","OBJECT_ID":"2022-057AA","EPOCH":"2026-07-20T21:27:35.999424","CLASSIFICATION_TYPE":"U","MEAN_MOTION":15.52450165,"ECCENTRICITY":0.00030471,"INCLINATION":97.6639,"RA_OF_ASC_NODE":2.1246,"ARG_OF_PERICENTER":303.4308,"MEAN_ANOMALY":56.6652,"EPHEMERIS_TYPE":0,"NORAD_CAT_ID":52756,"ELEMENT_SET_NO":999,"REV_AT_EPOCH":23157,"BSTAR":0.00021657646,"MEAN_MOTION_DOT":0.00013142,"MEAN_MOTION_DDOT":0},{"OBJECT_NAME":"HAWK-5A","OBJECT_ID":"2022-057AB","EPOCH":"2026-07-20T16:48:51.145344","CLASSIFICATION_TYPE":"U","MEAN_MOTION":15.52446178,"ECCENTRICITY":0.00029439,"INCLINATION":97.6637,"RA_OF_ASC_NODE":2.7481,"ARG_OF_PERICENTER":311.203,"MEAN_ANOMALY":48.8967,"EPHEMERIS_TYPE":0,"NORAD_CAT_ID":52757,"ELEMENT_SET_NO":999,"REV_AT_EPOCH":23154,"BSTAR":0.00019411255,"MEAN_MOTION_DOT":0.00011764,"MEAN_MOTION_DDOT":0},{"OBJECT_NAME":"HAWK-6B","OBJECT_ID":"2023-011A","EPOCH":"2026-07-20T22:50:27.121056","CLASSIFICATION_TYPE":"U","MEAN_MOTION":15.23186358,"ECCENTRICITY":0.0004596,"INCLINATION":40.4981,"RA_OF_ASC_NODE":155.0908,"ARG_OF_PERICENTER":269.6243,"MEAN_ANOMALY":90.404,"EPHEMERIS_TYPE":0,"NORAD_CAT_ID":55324,"ELEMENT_SET_NO":999,"REV_AT_EPOCH":19299,"BSTAR":0.00013769064,"MEAN_MOTION_DOT":0.00003129,"MEAN_MOTION_DDOT":0},{"OBJECT_NAME":"HAWK-6C","OBJECT_ID":"2023-011C","EPOCH":"2026-07-20T22:49:32.438496","CLASSIFICATION_TYPE":"U","MEAN_MOTION":15.23185777,"ECCENTRICITY":0.00050971,"INCLINATION":40.4969,"RA_OF_ASC_NODE":151.9297,"ARG_OF_PERICENTER":264.2933,"MEAN_ANOMALY":95.7295,"EPHEMERIS_TYPE":0,"NORAD_CAT_ID":55326,"ELEMENT_SET_NO":999,"REV_AT_EPOCH":19300,"BSTAR":0.00013170106,"MEAN_MOTION_DOT":0.00002985,"MEAN_MOTION_DDOT":0},{"OBJECT_NAME":"HAWK-6A","OBJECT_ID":"2023-011D","EPOCH":"2026-07-20T22:49:35.676768","CLASSIFICATION_TYPE":"U","MEAN_MOTION":15.23186278,"ECCENTRICITY":0.00047744,"INCLINATION":40.4979,"RA_OF_ASC_NODE":153.5573,"ARG_OF_PERICENTER":261.3875,"MEAN_ANOMALY":98.6394,"EPHEMERIS_TYPE":0,"NORAD_CAT_ID":55327,"ELEMENT_SET_NO":999,"REV_AT_EPOCH":19300,"BSTAR":0.00013507315,"MEAN_MOTION_DOT":0.00003066,"MEAN_MOTION_DDOT":0},{"OBJECT_NAME":"HAWK-7A","OBJECT_ID":"2023-054P","EPOCH":"2026-07-20T12:27:43.085088","CLASSIFICATION_TYPE":"U","MEAN_MOTION":15.27665267,"ECCENTRICITY":0.0001005,"INCLINATION":97.2653,"RA_OF_ASC_NODE":88.0088,"ARG_OF_PERICENTER":294.4886,"MEAN_ANOMALY":65.6248,"EPHEMERIS_TYPE":0,"NORAD_CAT_ID":56191,"ELEMENT_SET_NO":999,"REV_AT_EPOCH":18211,"BSTAR":0.00012214,"MEAN_MOTION_DOT":0.0000323,"MEAN_MOTION_DDOT":0}]}
